IRIDIUM 116             
1 43072U 17083C   25177.25600696 -.00000049  00000+0 -24656-4 0  9992
2 43072  86.3969 110.8202 0001943  77.8699 282.2714 14.34218503393154
IRIDIUM 130             
1 43073U 17083D   25177.22429631  .00000091  00000+0  25465-4 0  9992
2 43073  86.3977 111.0742 0002270  74.5340 285.6106 14.34217658393092
IRIDIUM 151             
1 43074U 17083E   25177.19892549  .00000030  00000+0  37995-5 0  9996
2 43074  86.3971 110.8939 0002042  80.1413 280.0014 14.34217676393113
IRIDIUM 134             
1 43075U 17083F   25177.09744472  .00000025  00000+0  18207-5 0  9996
2 43075  86.3972 110.9395 0002311  76.7367 283.4086 14.34217530393069
IRIDIUM 137             
1 43076U 17083G   25176.76128564  .00000018  00000+0 -61231-6 0  9997
2 43076  86.3974 111.1654 0001476  82.4689 277.6674 14.34217591393082
IRIDIUM 141             
1 43077U 17083H   25176.75494486  .00000052  00000+0  11428-4 0  9994
2 43077  86.3968 111.0189 0002418  87.7126 272.4346 14.34217521393081
IRIDIUM 153             
1 43078U 17083J   25176.84666361 -.00000162  00000+0 -64877-4 0  9998
2 43078  86.3958  79.4471 0002563  86.5243 273.6246 14.34218740394201
IRIDIUM 131             
1 43079U 17083K   25177.23063911  .00000010  00000+0 -35390-5 0  9995
2 43079  86.3974 110.9824 0002152  88.2349 271.9093 14.34217494393084
